[{"OBJECT_NAME":"OBJECT F","OBJECT_ID":"2024-205F","EPOCH":"2026-03-09T22:13:48.364608","MEAN_MOTION":15.17186787,"ECCENTRICITY":0.00083826,"INCLINATION":97.4176,"RA_OF_ASC_NODE":142.673,"ARG_OF_PERICENTER":234.765,"MEAN_ANOMALY":125.28,"EPHEMERIS_TYPE":0,"CLASSIFICATION_TYPE":"U","NORAD_CAT_ID":61899,"ELEMENT_SET_NO":999,"REV_AT_EPOCH":7324,"BSTAR":0.00063234837,"MEAN_MOTION_DOT":0.00012518,"MEAN_MOTION_DDOT":0},{"OBJECT_NAME":"OKEAN-2","OBJECT_ID":"1990-018A","EPOCH":"2026-03-09T23:36:10.183680","MEAN_MOTION":15.15649196,"ECCENTRICITY":0.00049727,"INCLINATION":82.5017,"RA_OF_ASC_NODE":331.5686,"ARG_OF_PERICENTER":303.4328,"MEAN_ANOMALY":67.9927,"EPHEMERIS_TYPE":0,"CLASSIFICATION_TYPE":"U","NORAD_CAT_ID":20510,"ELEMENT_SET_NO":999,"REV_AT_EPOCH":93903,"BSTAR":0.00028442133,"MEAN_MOTION_DOT":5.437e-5,"MEAN_MOTION_DDOT":0}]
